[{"CCSDS_OMM_VERS":"2.0","COMMENT":"GENERATED VIA SPACE-TRACK.ORG API","CREATION_DATE":"2021-11-03T18:02:46","ORIGINATOR":"18 SPCS","OBJECT_NAME":"TBA - TO BE ASSIGNED","OBJECT_ID":"","CENTER_NAME":"EARTH","REF_FRAME":"TEME","TIME_SYSTEM":"UTC","MEAN_ELEMENT_THEORY":"SGP4","EPOCH":"2021-11-03T05:25:45.063264","MEAN_MOTION":"14.13656836","ECCENTRICITY":"0.00768910","INCLINATION":"65.8082","RA_OF_ASC_NODE":"16.4772","ARG_OF_PERICENTER":"352.0055","MEAN_ANOMALY":"40.9186","EPHEMERIS_TYPE":"0","CLASSIFICATION_TYPE":"U","NORAD_CAT_ID":"87426","ELEMENT_SET_NO":"999","REV_AT_EPOCH":"40957","BSTAR":"0.00098335000000","MEAN_MOTION_DOT":"0.00001823","MEAN_MOTION_DDOT":"0.0000000000000","SEMIMAJOR_AXIS":"7225.022","PERIOD":"101.863","APOAPSIS":"902.441","PERIAPSIS":"791.333","OBJECT_TYPE":"TBA","RCS_SIZE":null,"COUNTRY_CODE":null,"LAUNCH_DATE":null,"SITE":null,"DECAY_DATE":null,"FILE":"3199757","GP_ID":"188806337","TLE_LINE0":"0 TBA - TO BE ASSIGNED","TLE_LINE1":"1 87426U          21307.22621601 +.00001823 +00000+0 +98335-3 0  9994","TLE_LINE2":"2 87426  65.8082  16.4772 0076891 352.0055  40.9186 14.13656836409572"},{"CCSDS_OMM_VERS":"2.0","COMMENT":"GENERATED VIA SPACE-TRACK.ORG API","CREATION_DATE":"2021-11-04T17:50:53","ORIGINATOR":"18 SPCS","OBJECT_NAME":"TBA - TO BE ASSIGNED","OBJECT_ID":"","CENTER_NAME":"EARTH","REF_FRAME":"TEME","TIME_SYSTEM":"UTC","MEAN_ELEMENT_THEORY":"SGP4","EPOCH":"2021-11-04T14:38:33.529056","MEAN_MOTION":"13.35881955","ECCENTRICITY":"0.00514390","INCLINATION":"100.2340","RA_OF_ASC_NODE":"82.0125","ARG_OF_PERICENTER":"252.2604","MEAN_ANOMALY":"107.2903","EPHEMERIS_TYPE":"0","CLASSIFICATION_TYPE":"U","NORAD_CAT_ID":"87433","ELEMENT_SET_NO":"999","REV_AT_EPOCH":"23211","BSTAR":"0.00314880000000","MEAN_MOTION_DOT":"0.00001575","MEAN_MOTION_DDOT":"0.0000000000000","SEMIMAJOR_AXIS":"7502.796","PERIOD":"107.794","APOAPSIS":"1163.254","PERIAPSIS":"1086.067","OBJECT_TYPE":"TBA","RCS_SIZE":null,"COUNTRY_CODE":null,"LAUNCH_DATE":null,"SITE":null,"DECAY_DATE":null,"FILE":"3200777","GP_ID":"188874217","TLE_LINE0":"0 TBA - TO BE ASSIGNED","TLE_LINE1":"1 87433U          21308.61011029 +.00001575 +00000+0 +31488-2 0  9992","TLE_LINE2":"2 87433 100.2340  82.0125 0051439 252.2604 107.2903 13.35881955232117"},{"CCSDS_OMM_VERS":"2.0","COMMENT":"GENERATED VIA SPACE-TRACK.ORG API","CREATION_DATE":"2020-07-27T20:08:39","ORIGINATOR":"18 SPCS","OBJECT_NAME":"TBA - TO BE ASSIGNED","OBJECT_ID":null,"CENTER_NAME":"EARTH","REF_FRAME":"TEME","TIME_SYSTEM":"UTC","MEAN_ELEMENT_THEORY":"SGP4","EPOCH":"2020-07-15T15:04:29.593056","MEAN_MOTION":"15.68859626","ECCENTRICITY":"0.00600060","INCLINATION":"62.0028","RA_OF_ASC_NODE":"43.1302","ARG_OF_PERICENTER":"191.7115","MEAN_ANOMALY":"168.2617","EPHEMERIS_TYPE":"0","CLASSIFICATION_TYPE":"U","NORAD_CAT_ID":"87442","ELEMENT_SET_NO":"999","REV_AT_EPOCH":"16191","BSTAR":"0.03857500000000","MEAN_MOTION_DOT":"0.05838761","MEAN_MOTION_DDOT":"0.0000000000000","SEMIMAJOR_AXIS":"6740.298","PERIOD":"91.786","APOAPSIS":"402.609","PERIAPSIS":"321.717","OBJECT_TYPE":"TBA","RCS_SIZE":null,"COUNTRY_CODE":null,"LAUNCH_DATE":null,"SITE":null,"DECAY_DATE":null,"FILE":"2792184","GP_ID":"158299470","TLE_LINE0":"0 TBA - TO BE ASSIGNED","TLE_LINE1":"1 87442U          20197.62812029 +.05838761 +00000-0 +38575-1 0  9991","TLE_LINE2":"2 87442 062.0028 043.1302 0060006 191.7115 168.2617 15.68859626161910"},{"CCSDS_OMM_VERS":"2.0","COMMENT":"GENERATED VIA SPACE-TRACK.ORG API","CREATION_DATE":"2021-11-02T18:24:01","ORIGINATOR":"18 SPCS","OBJECT_NAME":"TBA - TO BE ASSIGNED","OBJECT_ID":"1970-025","CENTER_NAME":"EARTH","REF_FRAME":"TEME","TIME_SYSTEM":"UTC","MEAN_ELEMENT_THEORY":"SGP4","EPOCH":"2021-11-02T11:41:35.743200","MEAN_MOTION":"13.84293283","ECCENTRICITY":"0.00679750","INCLINATION":"100.4677","RA_OF_ASC_NODE":"318.8229","ARG_OF_PERICENTER":"107.5183","MEAN_ANOMALY":"253.3411","EPHEMERIS_TYPE":"0","CLASSIFICATION_TYPE":"U","NORAD_CAT_ID":"87448","ELEMENT_SET_NO":"999","REV_AT_EPOCH":"40114","BSTAR":"0.00085010000000","MEAN_MOTION_DOT":"0.00000914","MEAN_MOTION_DDOT":"0.0000000000000","SEMIMAJOR_AXIS":"7326.835","PERIOD":"104.024","APOAPSIS":"998.505","PERIAPSIS":"898.896","OBJECT_TYPE":"TBA","RCS_SIZE":null,"COUNTRY_CODE":null,"LAUNCH_DATE":null,"SITE":null,"DECAY_DATE":null,"FILE":"3197730","GP_ID":"188716596","TLE_LINE0":"0 TBA - TO BE ASSIGNED","TLE_LINE1":"1 87448U 70025    21306.48721925 +.00000914 +00000+0 +85010-3 0  9995","TLE_LINE2":"2 87448 100.4677 318.8229 0067975 107.5183 253.3411 13.84293283401142"},{"CCSDS_OMM_VERS":"2.0","COMMENT":"GENERATED VIA SPACE-TRACK.ORG API","CREATION_DATE":"2021-05-21T20:33:53","ORIGINATOR":"18 SPCS","OBJECT_NAME":"TBA - TO BE ASSIGNED","OBJECT_ID":"","CENTER_NAME":"EARTH","REF_FRAME":"TEME","TIME_SYSTEM":"UTC","MEAN_ELEMENT_THEORY":"SGP4","EPOCH":"2021-05-21T05:12:37.972224","MEAN_MOTION":"9.49126259","ECCENTRICITY":"0.29399260","INCLINATION":"63.3807","RA_OF_ASC_NODE":"67.0428","ARG_OF_PERICENTER":"252.4178","MEAN_ANOMALY":"73.7628","EPHEMERIS_TYPE":"0","CLASSIFICATION_TYPE":"U","NORAD_CAT_ID":"87455","ELEMENT_SET_NO":"999","REV_AT_EPOCH":"25060","BSTAR":"0.00063817000000","MEAN_MOTION_DOT":"0.00015189","MEAN_MOTION_DDOT":"0.0000007556700","SEMIMAJOR_AXIS":"9422.927","PERIOD":"151.718","APOAPSIS":"5815.063","PERIAPSIS":"274.522","OBJECT_TYPE":"TBA","RCS_SIZE":null,"COUNTRY_CODE":null,"LAUNCH_DATE":null,"SITE":null,"DECAY_DATE":null,"FILE":"3039734","GP_ID":"177591977","TLE_LINE0":"0 TBA - TO BE ASSIGNED","TLE_LINE1":"1 87455U          21141.21710616 +.00015189 +75567-6 +63817-3 0  9990","TLE_LINE2":"2 87455  63.3807  67.0428 2939926 252.4178  73.7628  9.49126259250607"},{"CCSDS_OMM_VERS":"2.0","COMMENT":"GENERATED VIA SPACE-TRACK.ORG API","CREATION_DATE":"2021-11-03T18:02:46","ORIGINATOR":"18 SPCS","OBJECT_NAME":"TBA - TO BE ASSIGNED","OBJECT_ID":"1976-126","CENTER_NAME":"EARTH","REF_FRAME":"TEME","TIME_SYSTEM":"UTC","MEAN_ELEMENT_THEORY":"SGP4","EPOCH":"2021-11-03T11:09:22.967424","MEAN_MOTION":"13.86546039","ECCENTRICITY":"0.06118400","INCLINATION":"65.7936","RA_OF_ASC_NODE":"12.5216","ARG_OF_PERICENTER":"42.5898","MEAN_ANOMALY":"322.0973","EPHEMERIS_TYPE":"0","CLASSIFICATION_TYPE":"U","NORAD_CAT_ID":"87456","ELEMENT_SET_NO":"999","REV_AT_EPOCH":"40187","BSTAR":"0.00035753000000","MEAN_MOTION_DOT":"0.00001788","MEAN_MOTION_DDOT":"0.0000000000000","SEMIMAJOR_AXIS":"7318.897","PERIOD":"103.855","APOAPSIS":"1388.562","PERIAPSIS":"492.963","OBJECT_TYPE":"TBA","RCS_SIZE":null,"COUNTRY_CODE":null,"LAUNCH_DATE":null,"SITE":null,"DECAY_DATE":null,"FILE":"3199757","GP_ID":"188806454","TLE_LINE0":"0 TBA - TO BE ASSIGNED","TLE_LINE1":"1 87456U 76126    21307.46484916 +.00001788 +00000+0 +35753-3 0  9996","TLE_LINE2":"2 87456  65.7936  12.5216 0611840  42.5898 322.0973 13.86546039401872"},{"CCSDS_OMM_VERS":"2.0","COMMENT":"GENERATED VIA SPACE-TRACK.ORG API","CREATION_DATE":"2021-11-03T18:02:46","ORIGINATOR":"18 SPCS","OBJECT_NAME":"TBA - TO BE ASSIGNED","OBJECT_ID":"1993-036","CENTER_NAME":"EARTH","REF_FRAME":"TEME","TIME_SYSTEM":"UTC","MEAN_ELEMENT_THEORY":"SGP4","EPOCH":"2021-11-02T19:29:53.636640","MEAN_MOTION":"14.82405163","ECCENTRICITY":"0.00642820","INCLINATION":"74.0175","RA_OF_ASC_NODE":"351.2913","ARG_OF_PERICENTER":"137.0378","MEAN_ANOMALY":"223.5846","EPHEMERIS_TYPE":"0","CLASSIFICATION_TYPE":"U","NORAD_CAT_ID":"87468","ELEMENT_SET_NO":"999","REV_AT_EPOCH":"25689","BSTAR":"0.00068847000000","MEAN_MOTION_DOT":"0.00005687","MEAN_MOTION_DDOT":"0.0000000000000","SEMIMAJOR_AXIS":"6999.879","PERIOD":"97.139","APOAPSIS":"666.741","PERIAPSIS":"576.748","OBJECT_TYPE":"TBA","RCS_SIZE":null,"COUNTRY_CODE":null,"LAUNCH_DATE":null,"SITE":null,"DECAY_DATE":null,"FILE":"3199757","GP_ID":"188806146","TLE_LINE0":"0 TBA - TO BE ASSIGNED","TLE_LINE1":"1 87468U 93036    21306.81242635 +.00005687 +00000+0 +68847-3 0  9998","TLE_LINE2":"2 87468  74.0175 351.2913 0064282 137.0378 223.5846 14.82405163256898"},{"CCSDS_OMM_VERS":"2.0","COMMENT":"GENERATED VIA SPACE-TRACK.ORG API","CREATION_DATE":"2021-11-04T17:50:53","ORIGINATOR":"18 SPCS","OBJECT_NAME":"TBA - TO BE ASSIGNED","OBJECT_ID":"1999-025","CENTER_NAME":"EARTH","REF_FRAME":"TEME","TIME_SYSTEM":"UTC","MEAN_ELEMENT_THEORY":"SGP4","EPOCH":"2021-11-04T10:38:19.332384","MEAN_MOTION":"14.51905593","ECCENTRICITY":"0.00712600","INCLINATION":"98.6364","RA_OF_ASC_NODE":"19.5175","ARG_OF_PERICENTER":"78.9988","MEAN_ANOMALY":"281.9211","EPHEMERIS_TYPE":"0","CLASSIFICATION_TYPE":"U","NORAD_CAT_ID":"87491","ELEMENT_SET_NO":"999","REV_AT_EPOCH":"36391","BSTAR":"0.00223570000000","MEAN_MOTION_DOT":"0.00009278","MEAN_MOTION_DDOT":"0.0000000000000","SEMIMAJOR_AXIS":"7097.568","PERIOD":"99.180","APOAPSIS":"770.011","PERIAPSIS":"668.856","OBJECT_TYPE":"TBA","RCS_SIZE":null,"COUNTRY_CODE":null,"LAUNCH_DATE":null,"SITE":null,"DECAY_DATE":null,"FILE":"3200777","GP_ID":"188874258","TLE_LINE0":"0 TBA - TO BE ASSIGNED","TLE_LINE1":"1 87491U 99025    21308.44327931 +.00009278 +00000+0 +22357-2 0  9997","TLE_LINE2":"2 87491  98.6364  19.5175 0071260  78.9988 281.9211 14.51905593363918"}]